[{"OBJECT_NAME":"ONEWEB-0275","OBJECT_ID":"2021-060AC","EPOCH":"2026-04-02T03:45:19.210176","MEAN_MOTION":13.16594966,"ECCENTRICITY":0.0001826,"INCLINATION":87.9036,"RA_OF_ASC_NODE":243.8849,"ARG_OF_PERICENTER":102.2267,"MEAN_ANOMALY":257.9069,"EPHEMERIS_TYPE":0,"CLASSIFICATION_TYPE":"U","NORAD_CAT_ID":48993,"ELEMENT_SET_NO":999,"REV_AT_EPOCH":22955,"BSTAR":7.3629e-06,"MEAN_MOTION_DOT":1.6e-07,"MEAN_MOTION_DDOT":0.0},{"OBJECT_NAME":"ONEWEB-0276","OBJECT_ID":"2021-060AD","EPOCH":"2026-04-02T08:12:03.953088","MEAN_MOTION":13.16595717,"ECCENTRICITY":0.0001785,"INCLINATION":87.9041,"RA_OF_ASC_NODE":243.8487,"ARG_OF_PERICENTER":94.2441,"MEAN_ANOMALY":265.8894,"EPHEMERIS_TYPE":0,"CLASSIFICATION_TYPE":"U","NORAD_CAT_ID":48994,"ELEMENT_SET_NO":999,"REV_AT_EPOCH":22959,"BSTAR":0.00034466000000000005,"MEAN_MOTION_DOT":1.45e-06,"MEAN_MOTION_DDOT":0.0},{"OBJECT_NAME":"ONEWEB-0277","OBJECT_ID":"2021-060AE","EPOCH":"2026-04-02T03:01:59.620800","MEAN_MOTION":13.16593614,"ECCENTRICITY":0.0001927,"INCLINATION":87.9028,"RA_OF_ASC_NODE":243.9046,"ARG_OF_PERICENTER":98.4855,"MEAN_ANOMALY":261.6495,"EPHEMERIS_TYPE":0,"CLASSIFICATION_TYPE":"U","NORAD_CAT_ID":48995,"ELEMENT_SET_NO":999,"REV_AT_EPOCH":22955,"BSTAR":-6.1605e-05,"MEAN_MOTION_DOT":-1.1e-07,"MEAN_MOTION_DDOT":0.0},{"OBJECT_NAME":"ONEWEB-0278","OBJECT_ID":"2021-060AF","EPOCH":"2026-04-02T02:48:18.402624","MEAN_MOTION":13.16595847,"ECCENTRICITY":0.0001561,"INCLINATION":87.9043,"RA_OF_ASC_NODE":243.8908,"ARG_OF_PERICENTER":94.1721,"MEAN_ANOMALY":265.9588,"EPHEMERIS_TYPE":0,"CLASSIFICATION_TYPE":"U","NORAD_CAT_ID":48996,"ELEMENT_SET_NO":999,"REV_AT_EPOCH":22968,"BSTAR":-9.8435e-05,"MEAN_MOTION_DOT":-2.5e-07,"MEAN_MOTION_DDOT":0.0},{"OBJECT_NAME":"ONEWEB-0279","OBJECT_ID":"2021-060AG","EPOCH":"2026-04-02T02:59:43.730880","MEAN_MOTION":13.16595063,"ECCENTRICITY":0.0002022,"INCLINATION":87.9042,"RA_OF_ASC_NODE":243.8884,"ARG_OF_PERICENTER":102.8411,"MEAN_ANOMALY":257.2946,"EPHEMERIS_TYPE":0,"CLASSIFICATION_TYPE":"U","NORAD_CAT_ID":48997,"ELEMENT_SET_NO":999,"REV_AT_EPOCH":22961,"BSTAR":-0.00018148,"MEAN_MOTION_DOT":-5.7e-07,"MEAN_MOTION_DDOT":0.0},{"OBJECT_NAME":"ONEWEB-0280","OBJECT_ID":"2021-060AH","EPOCH":"2026-04-02T03:21:22.168224","MEAN_MOTION":13.16595865,"ECCENTRICITY":0.0001867,"INCLINATION":87.9039,"RA_OF_ASC_NODE":243.8899,"ARG_OF_PERICENTER":88.9613,"MEAN_ANOMALY":271.1732,"EPHEMERIS_TYPE":0,"CLASSIFICATION_TYPE":"U","NORAD_CAT_ID":48998,"ELEMENT_SET_NO":999,"REV_AT_EPOCH":22955,"BSTAR":-0.00010602,"MEAN_MOTION_DOT":-2.8e-07,"MEAN_MOTION_DDOT":0.0},{"OBJECT_NAME":"ONEWEB-0281","OBJECT_ID":"2021-060AJ","EPOCH":"2026-04-01T22:01:03.417024","MEAN_MOTION":13.1659481,"ECCENTRICITY":0.0001717,"INCLINATION":87.9037,"RA_OF_ASC_NODE":243.9282,"ARG_OF_PERICENTER":104.1277,"MEAN_ANOMALY":256.0045,"EPHEMERIS_TYPE":0,"CLASSIFICATION_TYPE":"U","NORAD_CAT_ID":48999,"ELEMENT_SET_NO":999,"REV_AT_EPOCH":22959,"BSTAR":-0.00030048000000000005,"MEAN_MOTION_DOT":-1.02e-06,"MEAN_MOTION_DDOT":0.0},{"OBJECT_NAME":"ONEWEB-0282","OBJECT_ID":"2021-060AK","EPOCH":"2026-04-02T04:12:40.430016","MEAN_MOTION":13.16595253,"ECCENTRICITY":0.0001843,"INCLINATION":87.9038,"RA_OF_ASC_NODE":243.8873,"ARG_OF_PERICENTER":97.0381,"MEAN_ANOMALY":263.0959,"EPHEMERIS_TYPE":0,"CLASSIFICATION_TYPE":"U","NORAD_CAT_ID":49000,"ELEMENT_SET_NO":999,"REV_AT_EPOCH":22960,"BSTAR":0.00020684,"MEAN_MOTION_DOT":9.2e-07,"MEAN_MOTION_DDOT":0.0},{"OBJECT_NAME":"ONEWEB-0283","OBJECT_ID":"2021-060AL","EPOCH":"2026-04-01T22:28:24.648096","MEAN_MOTION":13.16595054,"ECCENTRICITY":0.0001908,"INCLINATION":87.9037,"RA_OF_ASC_NODE":243.9348,"ARG_OF_PERICENTER":101.8594,"MEAN_ANOMALY":258.2751,"EPHEMERIS_TYPE":0,"CLASSIFICATION_TYPE":"U","NORAD_CAT_ID":49001,"ELEMENT_SET_NO":999,"REV_AT_EPOCH":22958,"BSTAR":5.864000000000001e-06,"MEAN_MOTION_DOT":1.5e-07,"MEAN_MOTION_DDOT":0.0},{"OBJECT_NAME":"ONEWEB-0284","OBJECT_ID":"2021-060AM","EPOCH":"2026-04-01T22:19:17.973696","MEAN_MOTION":13.16594995,"ECCENTRICITY":0.0001723,"INCLINATION":87.9035,"RA_OF_ASC_NODE":243.9278,"ARG_OF_PERICENTER":88.3478,"MEAN_ANOMALY":271.785,"EPHEMERIS_TYPE":0,"CLASSIFICATION_TYPE":"U","NORAD_CAT_ID":49002,"ELEMENT_SET_NO":999,"REV_AT_EPOCH":22956,"BSTAR":0.00012949,"MEAN_MOTION_DOT":6.2e-07,"MEAN_MOTION_DDOT":0.0},{"OBJECT_NAME":"ONEWEB-0285","OBJECT_ID":"2021-075A","EPOCH":"2026-04-02T06:43:56.884800","MEAN_MOTION":13.12445017,"ECCENTRICITY":0.0001826,"INCLINATION":87.9017,"RA_OF_ASC_NODE":5.7334,"ARG_OF_PERICENTER":77.4904,"MEAN_ANOMALY":282.6429,"EPHEMERIS_TYPE":0,"CLASSIFICATION_TYPE":"U","NORAD_CAT_ID":49075,"ELEMENT_SET_NO":999,"REV_AT_EPOCH":22525,"BSTAR":0.00126,"MEAN_MOTION_DOT":4.66e-06,"MEAN_MOTION_DDOT":0.0},{"OBJECT_NAME":"ONEWEB-0286","OBJECT_ID":"2021-075B","EPOCH":"2026-04-02T06:18:07.324128","MEAN_MOTION":13.12444689,"ECCENTRICITY":0.0001598,"INCLINATION":87.9006,"RA_OF_ASC_NODE":5.7613,"ARG_OF_PERICENTER":79.5591,"MEAN_ANOMALY":280.5718,"EPHEMERIS_TYPE":0,"CLASSIFICATION_TYPE":"U","NORAD_CAT_ID":49076,"ELEMENT_SET_NO":999,"REV_AT_EPOCH":22460,"BSTAR":-0.00044774,"MEAN_MOTION_DOT":-1.48e-06,"MEAN_MOTION_DDOT":0.0},{"OBJECT_NAME":"ONEWEB-0287","OBJECT_ID":"2021-075C","EPOCH":"2026-04-02T05:31:54.178752","MEAN_MOTION":13.1764984,"ECCENTRICITY":0.0001413,"INCLINATION":87.9182,"RA_OF_ASC_NODE":20.9506,"ARG_OF_PERICENTER":73.3161,"MEAN_ANOMALY":286.8125,"EPHEMERIS_TYPE":0,"CLASSIFICATION_TYPE":"U","NORAD_CAT_ID":49077,"ELEMENT_SET_NO":999,"REV_AT_EPOCH":22362,"BSTAR":0.00017464,"MEAN_MOTION_DOT":8.1e-07,"MEAN_MOTION_DDOT":0.0},{"OBJECT_NAME":"ONEWEB-0288","OBJECT_ID":"2021-075D","EPOCH":"2026-04-02T07:33:57.593088","MEAN_MOTION":13.12443948,"ECCENTRICITY":0.0001757,"INCLINATION":87.9016,"RA_OF_ASC_NODE":5.7209,"ARG_OF_PERICENTER":74.6523,"MEAN_ANOMALY":285.48,"EPHEMERIS_TYPE":0,"CLASSIFICATION_TYPE":"U","NORAD_CAT_ID":49078,"ELEMENT_SET_NO":999,"REV_AT_EPOCH":22523,"BSTAR":-0.0007921200000000001,"MEAN_MOTION_DOT":-2.72e-06,"MEAN_MOTION_DDOT":0.0},{"OBJECT_NAME":"ONEWEB-0289","OBJECT_ID":"2021-075E","EPOCH":"2026-04-02T06:27:35.524224","MEAN_MOTION":13.17649918,"ECCENTRICITY":0.0002127,"INCLINATION":87.9189,"RA_OF_ASC_NODE":20.9562,"ARG_OF_PERICENTER":69.7531,"MEAN_ANOMALY":290.3829,"EPHEMERIS_TYPE":0,"CLASSIFICATION_TYPE":"U","NORAD_CAT_ID":49079,"ELEMENT_SET_NO":999,"REV_AT_EPOCH":22420,"BSTAR":8.2361e-06,"MEAN_MOTION_DOT":1.6e-07,"MEAN_MOTION_DDOT":0.0},{"OBJECT_NAME":"ONEWEB-0290","OBJECT_ID":"2021-075F","EPOCH":"2026-04-02T07:38:15.362304","MEAN_MOTION":13.1765103,"ECCENTRICITY":0.0002331,"INCLINATION":87.9192,"RA_OF_ASC_NODE":20.9158,"ARG_OF_PERICENTER":71.167,"MEAN_ANOMALY":288.9714,"EPHEMERIS_TYPE":0,"CLASSIFICATION_TYPE":"U","NORAD_CAT_ID":49080,"ELEMENT_SET_NO":999,"REV_AT_EPOCH":22362,"BSTAR":8.449400000000001e-05,"MEAN_MOTION_DOT":4.6e-07,"MEAN_MOTION_DDOT":0.0}]