ONEWEB-0275             
1 48993U 21060AC  26092.15647234  .00000016  00000+0  73629-5 0  9991
2 48993  87.9036 243.8849 0001826 102.2267 257.9069 13.16594966229554
ONEWEB-0276             
1 48994U 21060AD  26092.34171242  .00000145  00000+0  34466-3 0  9991
2 48994  87.9041 243.8487 0001785  94.2441 265.8894 13.16595717229590
ONEWEB-0277             
1 48995U 21060AE  26092.12638450 -.00000011  00000+0 -61605-4 0  9997
2 48995  87.9028 243.9046 0001927  98.4855 261.6495 13.16593614229552
ONEWEB-0278             
1 48996U 21060AF  26092.11687966 -.00000025  00000+0 -98435-4 0  9999
2 48996  87.9043 243.8908 0001561  94.1721 265.9588 13.16595847229689
ONEWEB-0279             
1 48997U 21060AG  26092.12481170 -.00000057  00000+0 -18148-3 0  9997
2 48997  87.9042 243.8884 0002022 102.8411 257.2946 13.16595063229613
ONEWEB-0280             
1 48998U 21060AH  26092.13983991 -.00000028  00000+0 -10602-3 0  9992
2 48998  87.9039 243.8899 0001867  88.9613 271.1732 13.16595865229551
ONEWEB-0281             
1 48999U 21060AJ  26091.91740066 -.00000102  00000+0 -30048-3 0  9991
2 48999  87.9037 243.9282 0001717 104.1277 256.0045 13.16594810229590
ONEWEB-0282             
1 49000U 21060AK  26092.17546794  .00000092  00000+0  20684-3 0  9997
2 49000  87.9038 243.8873 0001843  97.0381 263.0959 13.16595253229602
ONEWEB-0283             
1 49001U 21060AL  26091.93639639  .00000015  00000+0  58640-5 0  9992
2 49001  87.9037 243.9348 0001908 101.8594 258.2751 13.16595054229584
ONEWEB-0284             
1 49002U 21060AM  26091.93006914  .00000062  00000+0  12949-3 0  9999
2 49002  87.9035 243.9278 0001723  88.3478 271.7850 13.16594995229561
ONEWEB-0285             
1 49075U 21075A   26092.28051950  .00000466  00000+0  12600-2 0  9995
2 49075  87.9017   5.7334 0001826  77.4904 282.6429 13.12445017225256
ONEWEB-0286             
1 49076U 21075B   26092.26258477 -.00000148  00000+0 -44774-3 0  9994
2 49076  87.9006   5.7613 0001598  79.5591 280.5718 13.12444689224606
ONEWEB-0287             
1 49077U 21075C   26092.23048818  .00000081  00000+0  17464-3 0  9998
2 49077  87.9182  20.9506 0001413  73.3161 286.8125 13.17649840223626
ONEWEB-0288             
1 49078U 21075D   26092.31524992 -.00000272  00000+0 -79212-3 0  9993
2 49078  87.9016   5.7209 0001757  74.6523 285.4800 13.12443948225231
ONEWEB-0289             
1 49079U 21075E   26092.26916116  .00000016  00000+0  82361-5 0  9996
2 49079  87.9189  20.9562 0002127  69.7531 290.3829 13.17649918224202
ONEWEB-0290             
1 49080U 21075F   26092.31823336  .00000046  00000+0  84494-4 0  9996
2 49080  87.9192  20.9158 0002331  71.1670 288.9714 13.17651030223626
